[{"OBJECT_NAME":"STARLINK-36054","OBJECT_ID":"2025-278X","EPOCH":"2026-03-09T12:35:45.303360","MEAN_MOTION":15.27616009,"ECCENTRICITY":0.0001475,"INCLINATION":43.0022,"RA_OF_ASC_NODE":115.3149,"ARG_OF_PERICENTER":293.8382,"MEAN_ANOMALY":66.2315,"EPHEMERIS_TYPE":0,"CLASSIFICATION_TYPE":"U","NORAD_CAT_ID":66812,"ELEMENT_SET_NO":999,"REV_AT_EPOCH":1518,"BSTAR":0.001053,"MEAN_MOTION_DOT":0.0002886,"MEAN_MOTION_DDOT":0},{"OBJECT_NAME":"OKEAN-1","OBJECT_ID":"1988-056A","EPOCH":"2026-03-09T21:19:04.260000","MEAN_MOTION":15.31672069,"ECCENTRICITY":0.00129431,"INCLINATION":82.4671,"RA_OF_ASC_NODE":262.7586,"ARG_OF_PERICENTER":168.0696,"MEAN_ANOMALY":192.0855,"EPHEMERIS_TYPE":0,"CLASSIFICATION_TYPE":"U","NORAD_CAT_ID":19274,"ELEMENT_SET_NO":999,"REV_AT_EPOCH":3511,"BSTAR":0.00038371192,"MEAN_MOTION_DOT":0.00011798,"MEAN_MOTION_DDOT":0}]
